{
  "type": "FeatureCollection",
  "features": [
    {
      "type": "Feature",
      "properties": {
        "norad_id": 31646,
        "name": "FENGYUN 1C DEB",
        "group": "fengyun-1c-debris",
        "lat": 5.108713890135334,
        "lon": 7.180934249696561,
        "alt_km": 867.0731590689275,
        "timestamp": "2025-12-10T21:43:22.371606+00:00",
        "meta_object_name": "FENGYUN 1C DEB",
        "meta_object_id": "1999-025CBC",
        "meta_epoch": "2025-12-06T20:54:19.845792",
        "meta_mean_motion": 14.14117745,
        "meta_eccentricity": 0.00327131,
        "meta_inclination": 98.6907,
        "meta_ra_of_asc_node": 4.0414,
        "meta_arg_of_pericenter": 230.7291,
        "meta_mean_anomaly": 129.0979,
        "meta_ephemeris_type": 0,
        "meta_classification_type": "U",
        "meta_norad_cat_id": 31646,
        "meta_element_set_no": 999,
        "meta_rev_at_epoch": 63108,
        "meta_bstar": 0.00078502967,
        "meta_mean_motion_dot": 1.459e-05,
        "meta_mean_motion_ddot": 0,
        "tle_line1": "1 31646U 99025CBC 25340.87106303  .00001459  00000+0  78503-3 0  9991",
        "tle_line2": "2 31646  98.6907   4.0414 0032713 230.7291 129.0979 14.14117745631084"
      },
      "geometry": {
        "type": "Point",
        "coordinates": [
          7.180934249696561,
          5.108713890135334
        ]
      }
    },
    {
      "type": "Feature",
      "properties": {
        "norad_id": 31655,
        "name": "FENGYUN 1C DEB",
        "group": "fengyun-1c-debris",
        "lat": 29.432915783159075,
        "lon": 116.17361590484015,
        "alt_km": 808.2193192763325,
        "timestamp": "2025-12-10T21:43:22.371617+00:00",
        "meta_object_name": "FENGYUN 1C DEB",
        "meta_object_id": "1999-025CBM",
        "meta_epoch": "2025-12-08T02:11:00.557952",
        "meta_mean_motion": 13.63822611,
        "meta_eccentricity": 0.02885921,
        "meta_inclination": 99.2861,
        "meta_ra_of_asc_node": 288.1866,
        "meta_arg_of_pericenter": 150.074,
        "meta_mean_anomaly": 229.9547,
        "meta_ephemeris_type": 0,
        "meta_classification_type": "U",
        "meta_norad_cat_id": 31655,
        "meta_element_set_no": 999,
        "meta_rev_at_epoch": 59656,
        "meta_bstar": 0.0034168292,
        "meta_mean_motion_dot": 3.556e-05,
        "meta_mean_motion_ddot": 0,
        "tle_line1": "1 31655U 99025CBM 25342.09097868  .00003556  00000+0  34168-2 0  9990",
        "tle_line2": "2 31655  99.2861 288.1866 0288592 150.0740 229.9547 13.63822611596569"
      },
      "geometry": {
        "type": "Point",
        "coordinates": [
          116.17361590484015,
          29.432915783159075
        ]
      }
    },
    {
      "type": "Feature",
      "properties": {
        "norad_id": 31656,
        "name": "FENGYUN 1C DEB",
        "group": "fengyun-1c-debris",
        "lat": 80.32523208228672,
        "lon": -98.26178312257103,
        "alt_km": 714.0863210874841,
        "timestamp": "2025-12-10T21:43:22.371627+00:00",
        "meta_object_name": "FENGYUN 1C DEB",
        "meta_object_id": "1999-025CBN",
        "meta_epoch": "2025-12-07T22:06:00.092160",
        "meta_mean_motion": 14.46894273,
        "meta_eccentricity": 0.00228069,
        "meta_inclination": 99.1931,
        "meta_ra_of_asc_node": 330.2965,
        "meta_arg_of_pericenter": 65.9258,
        "meta_mean_anomaly": 324.8359,
        "meta_ephemeris_type": 0,
        "meta_classification_type": "U",
        "meta_norad_cat_id": 31656,
        "meta_element_set_no": 999,
        "meta_rev_at_epoch": 96386,
        "meta_bstar": 0.002990493,
        "meta_mean_motion_dot": 0.00010853,
        "meta_mean_motion_ddot": 0,
        "tle_line1": "1 31656U 99025CBN 25341.92083440  .00010853  00000+0  29905-2 0  9994",
        "tle_line2": "2 31656  99.1931 330.2965 0022806  65.9258 324.8359 14.46894273963860"
      },
      "geometry": {
        "type": "Point",
        "coordinates": [
          -98.26178312257103,
          80.32523208228672
        ]
      }
    },
    {
      "type": "Feature",
      "properties": {
        "norad_id": 31657,
        "name": "FENGYUN 1C DEB",
        "group": "fengyun-1c-debris",
        "lat": -77.13587720604038,
        "lon": -2.849364992036593,
        "alt_km": 1005.3964406982441,
        "timestamp": "2025-12-10T21:43:22.371637+00:00",
        "meta_object_name": "FENGYUN 1C DEB",
        "meta_object_id": "1999-025CBP",
        "meta_epoch": "2025-12-08T23:46:04.581120",
        "meta_mean_motion": 13.96979692,
        "meta_eccentricity": 0.0146321,
        "meta_inclination": 102.2162,
        "meta_ra_of_asc_node": 246.1689,
        "meta_arg_of_pericenter": 62.9314,
        "meta_mean_anomaly": 298.6682,
        "meta_ephemeris_type": 0,
        "meta_classification_type": "U",
        "meta_norad_cat_id": 31657,
        "meta_element_set_no": 999,
        "meta_rev_at_epoch": 62812,
        "meta_bstar": 0.0038883,
        "meta_mean_motion_dot": 5.871e-05,
        "meta_mean_motion_ddot": 0,
        "tle_line1": "1 31657U 99025CBP 25342.99033080  .00005871  00000+0  38883-2 0  9997",
        "tle_line2": "2 31657 102.2162 246.1689 0146321  62.9314 298.6682 13.96979692628127"
      },
      "geometry": {
        "type": "Point",
        "coordinates": [
          -2.849364992036593,
          -77.13587720604038
        ]
      }
    },
    {
      "type": "Feature",
      "properties": {
        "norad_id": 31658,
        "name": "FENGYUN 1C DEB",
        "group": "fengyun-1c-debris",
        "lat": -9.136296800318554,
        "lon": 12.881227794667344,
        "alt_km": 1017.9906465295762,
        "timestamp": "2025-12-10T21:43:22.371647+00:00",
        "meta_object_name": "FENGYUN 1C DEB",
        "meta_object_id": "1999-025CBQ",
        "meta_epoch": "2025-11-30T13:35:01.131648",
        "meta_mean_motion": 13.98632883,
        "meta_eccentricity": 0.0215722,
        "meta_inclination": 98.1534,
        "meta_ra_of_asc_node": 184.9954,
        "meta_arg_of_pericenter": 356.7033,
        "meta_mean_anomaly": 3.2699,
        "meta_ephemeris_type": 0,
        "meta_classification_type": "U",
        "meta_norad_cat_id": 31658,
        "meta_element_set_no": 999,
        "meta_rev_at_epoch": 69646,
        "meta_bstar": 0.0024889,
        "meta_mean_motion_dot": 4.324e-05,
        "meta_mean_motion_ddot": 0,
        "tle_line1": "1 31658U 99025CBQ 25334.56598532  .00004324  00000+0  24889-2 0  9993",
        "tle_line2": "2 31658  98.1534 184.9954 0215722 356.7033   3.2699 13.98632883696462"
      },
      "geometry": {
        "type": "Point",
        "coordinates": [
          12.881227794667344,
          -9.136296800318554
        ]
      }
    },
    {
      "type": "Feature",
      "properties": {
        "norad_id": 31660,
        "name": "FENGYUN 1C DEB",
        "group": "fengyun-1c-debris",
        "lat": -58.8162300450138,
        "lon": 151.98577086066666,
        "alt_km": 764.8539945844204,
        "timestamp": "2025-12-10T21:43:22.371658+00:00",
        "meta_object_name": "FENGYUN 1C DEB",
        "meta_object_id": "1999-025CBS",
        "meta_epoch": "2025-12-09T17:40:59.203776",
        "meta_mean_motion": 14.27109879,
        "meta_eccentricity": 0.010162,
        "meta_inclination": 98.506,
        "meta_ra_of_asc_node": 345.1652,
        "meta_arg_of_pericenter": 189.4957,
        "meta_mean_anomaly": 170.4306,
        "meta_ephemeris_type": 0,
        "meta_classification_type": "U",
        "meta_norad_cat_id": 31660,
        "meta_element_set_no": 999,
        "meta_rev_at_epoch": 7873,
        "meta_bstar": 0.00095587015,
        "meta_mean_motion_dot": 2.42e-05,
        "meta_mean_motion_ddot": 0,
        "tle_line1": "1 31660U 99025CBS 25343.73679634  .00002420  00000+0  95587-3 0  9997",
        "tle_line2": "2 31660  98.5060 345.1652 0101620 189.4957 170.4306 14.27109879 78739"
      },
      "geometry": {
        "type": "Point",
        "coordinates": [
          151.98577086066666,
          -58.8162300450138
        ]
      }
    },
    {
      "type": "Feature",
      "properties": {
        "norad_id": 31661,
        "name": "FENGYUN 1C DEB",
        "group": "fengyun-1c-debris",
        "lat": -46.315528330986204,
        "lon": 73.36726784697284,
        "alt_km": 809.3229688943093,
        "timestamp": "2025-12-10T21:43:22.371667+00:00",
        "meta_object_name": "FENGYUN 1C DEB",
        "meta_object_id": "1999-025CBT",
        "meta_epoch": "2025-12-09T03:57:48.331008",
        "meta_mean_motion": 14.25387631,
        "meta_eccentricity": 0.00583195,
        "meta_inclination": 98.8601,
        "meta_ra_of_asc_node": 62.2108,
        "meta_arg_of_pericenter": 233.9483,
        "meta_mean_anomaly": 154.8919,
        "meta_ephemeris_type": 0,
        "meta_classification_type": "U",
        "meta_norad_cat_id": 31661,
        "meta_element_set_no": 999,
        "meta_rev_at_epoch": 95662,
        "meta_bstar": 0.002231569,
        "meta_mean_motion_dot": 5.314e-05,
        "meta_mean_motion_ddot": 0,
        "tle_line1": "1 31661U 99025CBT 25343.16514272  .00005314  00000+0  22316-2 0  9995",
        "tle_line2": "2 31661  98.8601  62.2108 0058319 233.9483 154.8919 14.25387631956623"
      },
      "geometry": {
        "type": "Point",
        "coordinates": [
          73.36726784697284,
          -46.315528330986204
        ]
      }
    }
  ]
}